{"fetched_at":"2026-07-12T07:16:04.273Z","source":"https://celestrak.org/NORAD/elements/gp.php?NAME=TIGER&FORMAT=JSON","constellation":"oq-technology","records":[{"OBJECT_NAME":"TIGER-8","OBJECT_ID":"2024-043Y","EPOCH":"2026-07-09T22:53:10.511232","CLASSIFICATION_TYPE":"U","MEAN_MOTION":15.45105714,"ECCENTRICITY":0.0008787,"INCLINATION":97.5563,"RA_OF_ASC_NODE":340.4881,"ARG_OF_PERICENTER":118.5314,"MEAN_ANOMALY":241.682,"EPHEMERIS_TYPE":0,"NORAD_CAT_ID":59120,"ELEMENT_SET_NO":999,"REV_AT_EPOCH":13130,"BSTAR":0.00017757634,"MEAN_MOTION_DOT":0.00008319,"MEAN_MOTION_DDOT":0},{"OBJECT_NAME":"TIGER-7","OBJECT_ID":"2024-043AV","EPOCH":"2026-07-11T08:35:54.530592","CLASSIFICATION_TYPE":"U","MEAN_MOTION":15.49293539,"ECCENTRICITY":0.0006855,"INCLINATION":97.5502,"RA_OF_ASC_NODE":344.4348,"ARG_OF_PERICENTER":87.6447,"MEAN_ANOMALY":272.5588,"EPHEMERIS_TYPE":0,"NORAD_CAT_ID":59141,"ELEMENT_SET_NO":999,"REV_AT_EPOCH":13171,"BSTAR":0.00014869554,"MEAN_MOTION_DOT":0.00008035,"MEAN_MOTION_DDOT":0}]}
