TIGER-8                 
1 59120U 24043Y   26190.95359388  .00008319  00000+0  17758-3 0  9999
2 59120  97.5563 340.4881 0008787 118.5314 241.6820 15.45105714131309
TIGER-7                 
1 59141U 24043AV  26192.35827003  .00008035  00000+0  14870-3 0  9999
2 59141  97.5502 344.4348 0006855  87.6447 272.5588 15.49293539131710
